{
  "type": "FeatureCollection",
  "features": [
    {
      "type": "Feature",
      "properties": {
        "norad_id": 31268,
        "name": "FENGYUN 1C DEB",
        "group": "fengyun-1c-debris",
        "lat": -45.20837558365794,
        "lon": -163.40687375729493,
        "alt_km": 848.2845215388179,
        "timestamp": "2025-12-09T04:51:47.774546+00:00",
        "meta_object_name": "FENGYUN 1C DEB",
        "meta_object_id": "1999-025BNA",
        "meta_epoch": "2025-11-30T20:01:13.105344",
        "meta_mean_motion": 14.06369123,
        "meta_eccentricity": 0.00492969,
        "meta_inclination": 98.7575,
        "meta_ra_of_asc_node": 17.4295,
        "meta_arg_of_pericenter": 216.6529,
        "meta_mean_anomaly": 143.1264,
        "meta_ephemeris_type": 0,
        "meta_classification_type": "U",
        "meta_norad_cat_id": 31268,
        "meta_element_set_no": 999,
        "meta_rev_at_epoch": 61865,
        "meta_bstar": 0.00085236082,
        "meta_mean_motion_dot": 1.38e-05,
        "meta_mean_motion_ddot": 0,
        "tle_line1": "1 31268U 99025BNA 25334.83417946  .00001380  00000+0  85236-3 0  9992",
        "tle_line2": "2 31268  98.7575  17.4295 0049296 216.6529 143.1264 14.06369123618654"
      },
      "geometry": {
        "type": "Point",
        "coordinates": [
          -163.40687375729493,
          -45.20837558365794
        ]
      }
    },
    {
      "type": "Feature",
      "properties": {
        "norad_id": 31269,
        "name": "FENGYUN 1C DEB",
        "group": "fengyun-1c-debris",
        "lat": -39.653935327129425,
        "lon": 34.55873086556689,
        "alt_km": 680.7269415190249,
        "timestamp": "2025-12-09T04:51:47.774556+00:00",
        "meta_object_name": "FENGYUN 1C DEB",
        "meta_object_id": "1999-025BNB",
        "meta_epoch": "2025-12-08T14:39:15.998976",
        "meta_mean_motion": 14.43560599,
        "meta_eccentricity": 0.0240935,
        "meta_inclination": 98.1805,
        "meta_ra_of_asc_node": 220.8369,
        "meta_arg_of_pericenter": 288.1389,
        "meta_mean_anomaly": 99.5038,
        "meta_ephemeris_type": 0,
        "meta_classification_type": "U",
        "meta_norad_cat_id": 31269,
        "meta_element_set_no": 999,
        "meta_rev_at_epoch": 96427,
        "meta_bstar": 0.003106,
        "meta_mean_motion_dot": 0.00014958,
        "meta_mean_motion_ddot": 0,
        "tle_line1": "1 31269U 99025BNB 25342.61060184  .00014958  00000+0  31060-2 0  9996",
        "tle_line2": "2 31269  98.1805 220.8369 0240935 288.1389  99.5038 14.43560599964274"
      },
      "geometry": {
        "type": "Point",
        "coordinates": [
          34.55873086556689,
          -39.653935327129425
        ]
      }
    },
    {
      "type": "Feature",
      "properties": {
        "norad_id": 31272,
        "name": "FENGYUN 1C DEB",
        "group": "fengyun-1c-debris",
        "lat": -74.16777019412497,
        "lon": -110.72840588671312,
        "alt_km": 894.8419648514555,
        "timestamp": "2025-12-09T04:51:47.774566+00:00",
        "meta_object_name": "FENGYUN 1C DEB",
        "meta_object_id": "1999-025BNE",
        "meta_epoch": "2025-12-08T03:55:00.238944",
        "meta_mean_motion": 14.22903587,
        "meta_eccentricity": 0.01066024,
        "meta_inclination": 99.0922,
        "meta_ra_of_asc_node": 213.8175,
        "meta_arg_of_pericenter": 125.9105,
        "meta_mean_anomaly": 235.2022,
        "meta_ephemeris_type": 0,
        "meta_classification_type": "U",
        "meta_norad_cat_id": 31272,
        "meta_element_set_no": 999,
        "meta_rev_at_epoch": 96924,
        "meta_bstar": 0.00068616772,
        "meta_mean_motion_dot": 1.589e-05,
        "meta_mean_motion_ddot": 0,
        "tle_line1": "1 31272U 99025BNE 25342.16319721  .00001589  00000+0  68617-3 0  9999",
        "tle_line2": "2 31272  99.0922 213.8175 0106602 125.9105 235.2022 14.22903587969240"
      },
      "geometry": {
        "type": "Point",
        "coordinates": [
          -110.72840588671312,
          -74.16777019412497
        ]
      }
    },
    {
      "type": "Feature",
      "properties": {
        "norad_id": 31274,
        "name": "FENGYUN 1C DEB",
        "group": "fengyun-1c-debris",
        "lat": -47.68141179176676,
        "lon": -27.322543576853075,
        "alt_km": 1002.9088476805018,
        "timestamp": "2025-12-09T04:51:47.774576+00:00",
        "meta_object_name": "FENGYUN 1C DEB",
        "meta_object_id": "1999-025BNG",
        "meta_epoch": "2025-12-05T06:12:12.289248",
        "meta_mean_motion": 13.85598033,
        "meta_eccentricity": 0.02385459,
        "meta_inclination": 99.0041,
        "meta_ra_of_asc_node": 158.9131,
        "meta_arg_of_pericenter": 130.3704,
        "meta_mean_anomaly": 231.8547,
        "meta_ephemeris_type": 0,
        "meta_classification_type": "U",
        "meta_norad_cat_id": 31274,
        "meta_element_set_no": 999,
        "meta_rev_at_epoch": 94103,
        "meta_bstar": 0.0016520723,
        "meta_mean_motion_dot": 2.318e-05,
        "meta_mean_motion_ddot": 0,
        "tle_line1": "1 31274U 99025BNG 25339.25847557  .00002318  00000+0  16521-2 0  9997",
        "tle_line2": "2 31274  99.0041 158.9131 0238545 130.3704 231.8547 13.85598033941037"
      },
      "geometry": {
        "type": "Point",
        "coordinates": [
          -27.322543576853075,
          -47.68141179176676
        ]
      }
    },
    {
      "type": "Feature",
      "properties": {
        "norad_id": 31275,
        "name": "FENGYUN 1C DEB",
        "group": "fengyun-1c-debris",
        "lat": -26.045286571057854,
        "lon": -157.81386704496663,
        "alt_km": 960.7377483645905,
        "timestamp": "2025-12-09T04:51:47.774586+00:00",
        "meta_object_name": "FENGYUN 1C DEB",
        "meta_object_id": "1999-025BNH",
        "meta_epoch": "2025-12-08T09:02:39.770880",
        "meta_mean_motion": 14.02304566,
        "meta_eccentricity": 0.01040075,
        "meta_inclination": 98.9459,
        "meta_ra_of_asc_node": 25.7905,
        "meta_arg_of_pericenter": 5.3942,
        "meta_mean_anomaly": 354.8319,
        "meta_ephemeris_type": 0,
        "meta_classification_type": "U",
        "meta_norad_cat_id": 31275,
        "meta_element_set_no": 999,
        "meta_rev_at_epoch": 95425,
        "meta_bstar": 0.0013323184,
        "meta_mean_motion_dot": 2.099e-05,
        "meta_mean_motion_ddot": 0,
        "tle_line1": "1 31275U 99025BNH 25342.37684920  .00002099  00000+0  13323-2 0  9991",
        "tle_line2": "2 31275  98.9459  25.7905 0104007   5.3942 354.8319 14.02304566954256"
      },
      "geometry": {
        "type": "Point",
        "coordinates": [
          -157.81386704496663,
          -26.045286571057854
        ]
      }
    },
    {
      "type": "Feature",
      "properties": {
        "norad_id": 31279,
        "name": "FENGYUN 1C DEB",
        "group": "fengyun-1c-debris",
        "lat": 58.1410589917909,
        "lon": -22.3668277131719,
        "alt_km": 831.3169935957112,
        "timestamp": "2025-12-09T04:51:47.774596+00:00",
        "meta_object_name": "FENGYUN 1C DEB",
        "meta_object_id": "1999-025BNM",
        "meta_epoch": "2025-12-08T06:41:44.220192",
        "meta_mean_motion": 14.26292679,
        "meta_eccentricity": 0.00734577,
        "meta_inclination": 98.5171,
        "meta_ra_of_asc_node": 350.6883,
        "meta_arg_of_pericenter": 190.7226,
        "meta_mean_anomaly": 169.2392,
        "meta_ephemeris_type": 0,
        "meta_classification_type": "U",
        "meta_norad_cat_id": 31279,
        "meta_element_set_no": 999,
        "meta_rev_at_epoch": 97165,
        "meta_bstar": 0.00086518183,
        "meta_mean_motion_dot": 2.094e-05,
        "meta_mean_motion_ddot": 0,
        "tle_line1": "1 31279U 99025BNM 25342.27898403  .00002094  00000+0  86518-3 0  9999",
        "tle_line2": "2 31279  98.5171 350.6883 0073457 190.7226 169.2392 14.26292679971659"
      },
      "geometry": {
        "type": "Point",
        "coordinates": [
          -22.3668277131719,
          58.1410589917909
        ]
      }
    },
    {
      "type": "Feature",
      "properties": {
        "norad_id": 31281,
        "name": "FENGYUN 1C DEB",
        "group": "fengyun-1c-debris",
        "lat": -73.96800717281563,
        "lon": 148.83615629444694,
        "alt_km": 600.9484975432824,
        "timestamp": "2025-12-09T04:51:47.774609+00:00",
        "meta_object_name": "FENGYUN 1C DEB",
        "meta_object_id": "1999-025BNP",
        "meta_epoch": "2025-12-08T19:42:23.749344",
        "meta_mean_motion": 15.17014719,
        "meta_eccentricity": 0.0114464,
        "meta_inclination": 98.3849,
        "meta_ra_of_asc_node": 117.5295,
        "meta_arg_of_pericenter": 104.9582,
        "meta_mean_anomaly": 256.4354,
        "meta_ephemeris_type": 0,
        "meta_classification_type": "U",
        "meta_norad_cat_id": 31281,
        "meta_element_set_no": 999,
        "meta_rev_at_epoch": 99672,
        "meta_bstar": 0.0019339,
        "meta_mean_motion_dot": 0.00045449,
        "meta_mean_motion_ddot": 0,
        "tle_line1": "1 31281U 99025BNP 25342.82110821  .00045449  00000+0  19339-2 0  9991",
        "tle_line2": "2 31281  98.3849 117.5295 0114464 104.9582 256.4354 15.17014719996725"
      },
      "geometry": {
        "type": "Point",
        "coordinates": [
          148.83615629444694,
          -73.96800717281563
        ]
      }
    }
  ]
}